{
  "norad_id": 64781,
  "name": "STARLINK-34582",
  "history": [
    {
      "epoch": "2026-03-28T13:25:17.815008",
      "apogee_km": 475.7394153045052,
      "perigee_km": 474.6278067014009,
      "latitude_deg": -43.61672510190226,
      "longitude_deg": -8.213538879994303,
      "semi_major_axis_km": 6853.320611002952,
      "eccentricity": 8.11e-05,
      "inclination_deg": 53.1586,
      "raan_deg": 154.8902,
      "arg_perigee_deg": 105.6994,
      "mean_anomaly_deg": 254.4096,
      "mean_motion_rev_day": 15.30210536
    }
  ]
}