{"fetched_at":"2026-03-29T16:36:15Z","count":15609,"tles":[{"name":"STARLINK-34582","line1":"1 64781U 25147AC  26087.55923397  .00022105  00000+0  75600-3 0  9991","line2":"2 64781  53.1586 154.8902 0000811 105.6994 254.4096 15.30210536 41572","category":"Starlink"}]}